ONEWEB-0678             
1 56714U 23068E   24011.57096443  .00000017  00000+0  11138-4 0  9993
2 56714  87.8990  75.8472 0002017 100.5480 259.5878 13.15547745 32581
ONEWEB-0679             
1 56715U 23068F   24011.58335648 -.00956363  00000+0 -85451+0 0  9998
2 56715  87.2853  46.7362 0015774 121.3842 191.6632 13.87555691  5623
ONEWEB-0680             
1 56716U 23068G   24011.61758346  .00000076  00000+0  15220-3 0  9997
2 56716  87.9221  60.6944 0001871  71.6789 288.4549 13.21824277 33845
ONEWEB-0681             
1 56717U 23068H   24011.56710390  .00000046  00000+0  79271-4 0  9993
2 56717  87.9219  60.6930 0001235 141.1674 218.9549 13.21824982 33827
ONEWEB-0682             
1 56718U 23068J   24011.60978979  .00000109  00000+0  25525-3 0  9990
2 56718  87.8983  75.8918 0001461  86.2080 273.9218 13.15546147 32752
ONEWEB-0683             
1 56719U 23068K   24011.61930507  .00000163  00000+0  39778-3 0  9992
2 56719  87.8983  75.8575 0001580  92.7995 267.3316 13.15549361 32725
ONEWEB-0684             
1 56720U 23068L   24011.55036918  .00000088  00000+0  20094-3 0  9997
2 56720  87.8984  75.9464 0002355  97.3609 262.7789 13.15545556 32545
ONEWEB-0686             
1 56721U 23068M   24011.58335648 -.00928088  00000+0 -81930+0 0  9996
2 56721  87.3049  46.7093 0014918 120.6430 301.7081 13.88171514 35481
